{
    "links": {
        "self": "http://www.neowsapp.com/rest/v1/neo/3383905?api_key=iIulBulltgU6a56xZRHN4H3l9WmuAYTsLGpBGhQ2"
    },
    "id": "3383905",
    "neo_reference_id": "3383905",
    "name": "(2007 RG2)",
    "designation": "2007 RG2",
    "nasa_jpl_url": "http://ssd.jpl.nasa.gov/sbdb.cgi?sstr=3383905",
    "absolute_magnitude_h": 23.8,
    "estimated_diameter": {
        "kilometers": {
            "estimated_diameter_min": 0.046190746,
            "estimated_diameter_max": 0.1032856481
        },
        "meters": {
            "estimated_diameter_min": 46.1907460282,
            "estimated_diameter_max": 103.2856480504
        },
        "miles": {
            "estimated_diameter_min": 0.0287015901,
            "estimated_diameter_max": 0.0641787064
        },
        "feet": {
            "estimated_diameter_min": 151.544447199,
            "estimated_diameter_max": 338.8636855496
        }
    },
    "is_potentially_hazardous_asteroid": false,
    "close_approach_data": [
        {
            "close_approach_date": "2007-09-07",
            "close_approach_date_full": "2007-Sep-07 00:08",
            "epoch_date_close_approach": 1189123680000,
            "relative_velocity": {
                "kilometers_per_second": "7.826006528",
                "kilometers_per_hour": "28173.6235009423",
                "miles_per_hour": "17505.9940025716"
            },
            "miss_distance": {
                "astronomical": "0.0621928036",
                "lunar": "24.1930006004",
                "kilometers": "9303910.947888332",
                "miles": "5781182.1860377016"
            },
            "orbiting_body": "Earth"
        }
    ],
    "orbital_data": {
        "orbit_id": "12",
        "orbit_determination_date": "2017-04-06 09:06:08",
        "first_observation_date": "2007-09-05",
        "last_observation_date": "2007-09-24",
        "data_arc_in_days": 19,
        "observations_used": 27,
        "orbit_uncertainty": "8",
        "minimum_orbit_intersection": ".032221",
        "jupiter_tisserand_invariant": "3.464",
        "epoch_osculation": "2454354.5",
        "eccentricity": ".5315258776339331",
        "semi_major_axis": "2.202759009079442",
        "inclination": ".734803562726708",
        "ascending_node_longitude": "112.6847712722847",
        "orbital_period": "1194.12256753465",
        "perihelion_distance": "1.031935593562439",
        "perihelion_argument": "253.5466788731333",
        "aphelion_distance": "3.373582424596446",
        "perihelion_time": "2454368.014496418659",
        "mean_anomaly": "355.9256957007673",
        "mean_motion": ".3014765902492281",
        "equinox": "J2000",
        "orbit_class": {
            "orbit_class_type": "AMO",
            "orbit_class_description": "Near-Earth asteroid orbits similar to that of 1221 Amor",
            "orbit_class_range": "1.017 AU < q (perihelion) < 1.3 AU"
        }
    },
    "is_sentry_object": false
}